[{"OBJECT_NAME":"STARLINK-30850","OBJECT_ID":"2023-171T","EPOCH":"2026-03-09T22:00:01.999584","MEAN_MOTION":15.23185969,"ECCENTRICITY":0.00015695,"INCLINATION":43.0008,"RA_OF_ASC_NODE":283.6898,"ARG_OF_PERICENTER":287.5987,"MEAN_ANOMALY":22.3163,"EPHEMERIS_TYPE":0,"CLASSIFICATION_TYPE":"U","NORAD_CAT_ID":58247,"ELEMENT_SET_NO":999,"REV_AT_EPOCH":577,"BSTAR":0.046917107,"MEAN_MOTION_DOT":0.01236111,"MEAN_MOTION_DDOT":0},{"OBJECT_NAME":"TEVEL2-8","OBJECT_ID":"2025-052AF","EPOCH":"2026-03-09T16:02:08.542752","MEAN_MOTION":15.28392908,"ECCENTRICITY":0.0008031,"INCLINATION":97.4055,"RA_OF_ASC_NODE":324.2923,"ARG_OF_PERICENTER":124.9191,"MEAN_ANOMALY":235.2804,"EPHEMERIS_TYPE":0,"CLASSIFICATION_TYPE":"U","NORAD_CAT_ID":63239,"ELEMENT_SET_NO":999,"REV_AT_EPOCH":5480,"BSTAR":0.00069303947,"MEAN_MOTION_DOT":0.0001913,"MEAN_MOTION_DDOT":0}]
